{
  "norad_id": 65246,
  "name": "STARLINK-34959",
  "history": [
    {
      "epoch": "2026-03-28T19:59:50.009280Z",
      "apogee_km": 550.545221459507,
      "perigee_km": 548.4504432389012,
      "latitude_deg": 9.116653320779864e-06,
      "longitude_deg": 5.546734049287171,
      "height_km": 553.3856015959846,
      "semi_major_axis_km": 6927.634832349204,
      "eccentricity": 0.00015119,
      "inclination_deg": 97.602,
      "raan_deg": 131.7531,
      "arg_perigee_deg": 141.8665,
      "mean_anomaly_deg": 218.2669,
      "mean_motion_rev_day": 15.05654343
    },
    {
      "epoch": "2026-03-29T02:22:37.966656Z",
      "apogee_km": 550.5216315620228,
      "perigee_km": 548.4641254881008,
      "latitude_deg": -2.4738267397812432e-05,
      "longitude_deg": -90.15320067513026,
      "height_km": 553.3788783306511,
      "semi_major_axis_km": 6927.629878525061,
      "eccentricity": 0.0001485,
      "inclination_deg": 97.6019,
      "raan_deg": 132.015,
      "arg_perigee_deg": 143.0376,
      "mean_anomaly_deg": 217.0953,
      "mean_motion_rev_day": 15.05655958
    },
    {
      "epoch": "2026-03-30T02:18:07.937280Z",
      "apogee_km": 550.5320878786279,
      "perigee_km": 548.439945727554,
      "latitude_deg": 4.627550571250166e-05,
      "longitude_deg": -89.02835163287688,
      "height_km": 553.3388353430133,
      "semi_major_axis_km": 6927.623016803091,
      "eccentricity": 0.000151,
      "inclination_deg": 97.6015,
      "raan_deg": 132.9973,
      "arg_perigee_deg": 138.9587,
      "mean_anomaly_deg": 221.1754,
      "mean_motion_rev_day": 15.05658195
    }
  ]
}